NORAD_CAT_ID,OBJECT_NAME,OBJECT_TYPE,EPOCH,MEAN_MOTION,ECCENTRICITY,INCLINATION,RA_OF_ASC_NODE,ARG_OF_PERICENTER,MEAN_ANOMALY,BSTAR,MEAN_MOTION_DOT,MEAN_MOTION_DDOT,TLE_LINE0,TLE_LINE1,TLE_LINE2,SEMIMAJOR_AXIS,PERIOD,APOGEE,PERIGEE,DECAYED
55299.0,STARLINK-5270,PAYLOAD,2023-12-05 21:08:49,14.9833194,0.0002017,70.0021,303.9756,252.9076,107.1862,0.00018577,2.124e-05,0.0,0 STARLINK-5270,1 55299U 23010AG  23339.88112753  .00002124  00000-0  18577-3 0  9991,2 55299  70.0021 303.9756 0002017 252.9076 107.1862 14.98331940 50604,6950.187,96.107,573.454,570.65,0.0
55299.0,STARLINK-5270,PAYLOAD,2023-12-06 06:45:38,14.98329157,0.0001878,70.0015,302.9671,241.9077,118.1893,7.606e-05,8.15e-06,0.0,0 STARLINK-5270,1 55299U 23010AG  23340.28169167  .00000815  00000-0  76060-4 0  9995,2 55299  70.0015 302.9671 0001878 241.9077 118.1893 14.98329157 49471,6950.195,96.107,573.366,570.755,0.0
55299.0,STARLINK-5270,PAYLOAD,2023-12-06 22:46:58,14.98333083,0.0002374,70.0015,301.2835,255.4322,104.6573,-0.00014618,-1.837e-05,0.0,0 STARLINK-5270,1 55299U 23010AG  23340.94929288 -.00001837  00000-0 -14618-3 0  9993,2 55299  70.0015 301.2835 0002374 255.4322 104.6573 14.98333083 50762,6950.183,96.107,573.698,570.398,0.0
55299.0,STARLINK-5270,PAYLOAD,2023-12-07 05:11:31,14.98328945,0.0002208,70.0008,300.6118,243.8796,116.2136,-0.00016227,-2.028e-05,0.0,0 STARLINK-5270,1 55299U 23010AG  23341.21633512 -.00002028  00000-0 -16227-3 0  9997,2 55299  70.0008 300.6118 0002208 243.8796 116.2136 14.98328945 50803,6950.196,96.107,573.596,570.527,0.0
55299.0,STARLINK-5270,PAYLOAD,2023-12-08 06:49:39,14.98330838,0.0002612,69.9994,297.9174,267.5044,92.5816,-1.2618e-05,-2.44e-06,0.0,0 STARLINK-5270,1 55299U 23010AG  23342.28448853 -.00000244  00000-0 -12618-4 0  9996,2 55299  69.9994 297.9174 0002612 267.5044  92.5816 14.98330838 49771,6950.19,96.107,573.871,570.24,0.0
55299.0,STARLINK-5270,PAYLOAD,2023-12-09 06:51:40,14.98333149,0.0002612,69.9994,295.392,268.1306,91.9554,0.00010614,1.174e-05,0.0,0 STARLINK-5270,1 55299U 23010AG  23343.28588209  .00001174  00000-0  10614-3 0  9991,2 55299  69.9994 295.3920 0002612 268.1306  91.9554 14.98333149 49927,6950.183,96.107,573.864,570.233,0.0
55299.0,STARLINK-5270,PAYLOAD,2023-12-10 06:53:41,14.98328057,0.0002626,69.9995,292.8669,268.6831,91.4027,-2.5814e-05,-4.01e-06,0.0,0 STARLINK-5270,1 55299U 23010AG  23344.28728800 -.00000401  00000-0 -25814-4 0  9998,2 55299  69.9995 292.8669 0002626 268.6831  91.4027 14.98328057 50073,6950.199,96.107,573.889,570.239,0.0
55299.0,STARLINK-5270,PAYLOAD,2023-12-10 21:18:53,14.98331935,0.0002306,70.0,291.3551,268.3263,91.7632,4.3835e-08,-9.2e-07,0.0,0 STARLINK-5270,1 55299U 23010AG  23344.88812439 -.00000092  00000-0  43835-7 0  9997,2 55299  70.0000 291.3551 0002306 268.3263  91.7632 14.98331935 51354,6950.187,96.107,573.655,570.449,0.0
55299.0,STARLINK-5270,PAYLOAD,2023-12-11 03:43:26,14.98335886,0.0002452,69.9996,290.6796,262.0606,98.0275,-5.3029e-05,-7.26e-06,0.0,0 STARLINK-5270,1 55299U 23010AG  23345.15516286 -.00000726  00000-0 -53029-4 0  9997,2 55299  69.9996 290.6796 0002452 262.0606  98.0275 14.98335886 50207,6950.175,96.107,573.744,570.336,0.0
55299.0,STARLINK-5270,PAYLOAD,2023-12-11 05:19:34,14.98335617,0.0002415,69.9996,290.5113,270.7444,89.3438,-2.5015e-05,-3.91e-06,0.0,0 STARLINK-5270,1 55299U 23010AG  23345.22192243 -.00000391  00000-0 -25015-4 0  9990,2 55299  69.9996 290.5113 0002415 270.7444  89.3438 14.98335617 51403,6950.176,96.107,573.719,570.362,0.0
55299.0,STARLINK-5270,PAYLOAD,2023-12-11 22:57:02,14.98331695,0.0002272,70.0,288.6608,257.9246,102.1658,-7.5511e-06,-1.83e-06,0.0,0 STARLINK-5270,1 55299U 23010AG  23345.95628298 -.00000183  00000-0 -75511-5 0  9990,2 55299  70.0000 288.6608 0002272 257.9246 102.1658 14.98331695 51519,6950.188,96.107,573.632,570.474,0.0
55299.0,STARLINK-5270,PAYLOAD,2023-12-12 03:45:27,14.98327822,0.0002182,70.0004,288.1556,257.7329,102.3585,-3.2964e-05,-4.86e-06,0.0,0 STARLINK-5270,1 55299U 23010AG  23346.15656546 -.00000486  00000-0 -32964-4 0  9990,2 55299  70.0004 288.1556 0002182 257.7329 102.3585 14.98327822 50359,6950.2,96.107,573.581,570.548,0.0
55299.0,STARLINK-5270,PAYLOAD,2023-12-12 05:21:35,14.98328934,0.0002228,70.0006,287.9882,259.1449,100.946,-1.4399e-05,-2.65e-06,0.0,0 STARLINK-5270,1 55299U 23010AG  23346.22332425 -.00000265  00000-0 -14399-4 0  9992,2 55299  70.0006 287.9882 0002228 259.1449 100.9460 14.98328934 51554,6950.196,96.107,573.61,570.513,0.0
55299.0,STARLINK-5270,PAYLOAD,2023-12-12 22:59:03,14.98332989,0.0002159,70.0,286.1361,249.9167,110.176,-2.2458e-05,-3.61e-06,0.0,0 STARLINK-5270,1 55299U 23010AG  23346.95768107 -.00000361  00000-0 -22458-4 0  9994,2 55299  70.0000 286.1361 0002159 249.9167 110.1760 14.98332989 51661,6950.184,96.107,573.549,570.548,0.0
55299.0,STARLINK-5270,PAYLOAD,2023-12-13 03:47:27,14.98332398,0.0002177,70.0001,285.6315,248.4267,111.666,-2.5684e-05,-3.99e-06,0.0,0 STARLINK-5270,1 55299U 23010AG  23347.15796110 -.00000399  00000-0 -25684-4 0  9997,2 55299  70.0001 285.6315 0002177 248.4267 111.6660 14.98332398 50501,6950.185,96.107,573.564,570.537,0.0
55299.0,STARLINK-5270,PAYLOAD,2023-12-13 05:23:35,14.9833187,0.0002245,70.0001,285.4632,255.3173,104.7737,-7.454e-06,-1.82e-06,0.0,0 STARLINK-5270,1 55299U 23010AG  23347.22472094 -.00000182  00000-0 -74540-5 0  9993,2 55299  70.0001 285.4632 0002245 255.3173 104.7737 14.98331870 51705,6950.187,96.107,573.612,570.492,0.0
55299.0,STARLINK-5270,PAYLOAD,2023-12-13 21:24:56,14.98327361,0.0002196,70.0003,283.7801,249.3679,110.7244,-2.2065e-05,-3.56e-06,0.0,0 STARLINK-5270,1 55299U 23010AG  23347.89232373 -.00000356  00000-0 -22065-4 0  9997,2 55299  70.0003 283.7801 0002196 249.3679 110.7244 14.98327361 51806,6950.201,96.107,573.592,570.54,0.0
55299.0,STARLINK-5270,PAYLOAD,2023-12-14 03:49:29,14.98326166,0.0002216,70.0003,283.1068,250.5866,109.5054,-3.5794e-05,-5.2e-06,0.0,0 STARLINK-5270,1 55299U 23010AG  23348.15936529 -.00000520  00000-0 -35794-4 0  9997,2 55299  70.0003 283.1068 0002216 250.5866 109.5054 14.98326166 50659,6950.205,96.107,573.61,570.53,0.0
55299.0,STARLINK-5270,PAYLOAD,2023-12-14 05:25:37,14.98326449,0.0002218,70.0003,282.9384,251.5899,108.5019,-3.2861e-05,-4.85e-06,0.0,0 STARLINK-5270,1 55299U 23010AG  23348.22612519 -.00000485  00000-0 -32861-4 0  9997,2 55299  70.0003 282.9384 0002218 251.5899 108.5019 14.98326449 51853,6950.204,96.107,573.61,570.527,0.0
55299.0,STARLINK-5270,PAYLOAD,2023-12-14 21:26:57,14.98333258,0.0002317,70.0,281.2547,255.2666,104.8236,1.5564e-05,9.3e-07,0.0,0 STARLINK-5270,1 55299U 23010AG  23348.89371917  .00000093  00000-0  15564-4 0  9998,2 55299  70.0000 281.2547 0002317 255.2666 104.8236 14.98333258 51953,6950.183,96.107,573.658,570.437,0.0
55299.0,STARLINK-5270,PAYLOAD,2023-12-15 03:51:29,14.98333784,0.0002288,70.0001,280.5816,252.6753,107.4156,2.4491e-05,1.99e-06,0.0,0 STARLINK-5270,1 55299U 23010AG  23349.16075799  .00000199  00000-0  24491-4 0  9994,2 55299  70.0001 280.5816 0002288 252.6753 107.4156 14.98333784 50807,6950.181,96.107,573.636,570.456,0.0
55299.0,STARLINK-5270,PAYLOAD,2023-12-15 05:27:37,14.98333607,0.0002305,70.0,280.413,255.6223,104.4681,2.1349e-05,1.62e-06,0.0,0 STARLINK-5270,1 55299U 23010AG  23349.22751811  .00000162  00000-0  21349-4 0  9996,2 55299  70.0000 280.4130 0002305 255.6223 104.4681 14.98333607 52007,6950.182,96.107,573.649,570.445,0.0
55299.0,STARLINK-5270,PAYLOAD,2023-12-15 19:52:50,14.98324618,0.0002277,70.0002,278.8988,248.8454,111.2462,-1.2903e-05,-2.47e-06,0.0,0 STARLINK-5270,1 55299U 23010AG  23349.82836481 -.00000247  00000-0 -12903-4 0  9991,2 55299  70.0002 278.8988 0002277 248.8454 111.2462 14.98324618 50901,6950.21,96.107,573.657,570.492,0.0
55299.0,STARLINK-5270,PAYLOAD,2023-12-15 21:28:58,14.98324559,0.0002278,70.0002,278.7305,248.8864,111.2051,-1.3832e-05,-2.58e-06,0.0,0 STARLINK-5270,1 55299U 23010AG  23349.89512504 -.00000258  00000-0 -13832-4 0  9999,2 55299  70.0002 278.7305 0002278 248.8864 111.2051 14.98324559 52101,6950.21,96.107,573.658,570.491,0.0
55299.0,STARLINK-5270,PAYLOAD,2023-12-16 05:29:39,14.98323069,0.0002304,70.0001,277.8888,252.4078,107.683,-3.2925e-05,-4.86e-06,0.0,0 STARLINK-5270,1 55299U 23010AG  23350.22892770 -.00000486  00000-0 -32925-4 0  9991,2 55299  70.0001 277.8888 0002304 252.4078 107.6830 14.98323069 52158,6950.214,96.107,573.681,570.478,0.0
55299.0,STARLINK-5270,PAYLOAD,2023-12-16 19:54:51,14.98331484,0.000256,69.9993,276.3732,263.6732,96.4135,-4.3892e-05,-6.17e-06,0.0,0 STARLINK-5270,1 55299U 23010AG  23350.82976351 -.00000617  00000-0 -43892-4 0  9996,2 55299  69.9993 276.3732 0002560 263.6732  96.4135 14.98331484 51053,6950.188,96.107,573.833,570.274,0.0
55299.0,STARLINK-5270,PAYLOAD,2023-12-16 21:30:59,14.98331208,0.0002506,69.9994,276.2039,265.3236,94.7637,1.4198e-06,-7.6e-07,0.0,0 STARLINK-5270,1 55299U 23010AG  23350.89652226 -.00000076  00000-0  14198-5 0  9991,2 55299  69.9994 276.2039 0002506 265.3236  94.7637 14.98331208 52256,6950.189,96.107,573.796,570.312,0.0
55299.0,STARLINK-5270,PAYLOAD,2023-12-17 03:55:31,14.98332856,0.0002171,70.0003,275.5313,256.8201,103.2716,6.5673e-06,-1.5e-07,0.0,0 STARLINK-5270,1 55299U 23010AG  23351.16356084 -.00000015  00000-0  65673-5 0  9992,2 55299  70.0003 275.5313 0002171 256.8201 103.2716 14.98332856 52290,6950.184,96.107,573.558,570.54,0.0
55299.0,STARLINK-5270,PAYLOAD,2023-12-17 19:56:51,14.98331908,0.0002416,69.9998,273.8463,272.5786,87.5096,0.00010772,1.193e-05,0.0,0 STARLINK-5270,1 55299U 23010AG  23351.83115700  .00001193  00000-0  10772-3 0  9999,2 55299  69.9998 273.8463 0002416 272.5786  87.5096 14.98331908 51204,6950.187,96.107,573.731,570.373,0.0
55299.0,STARLINK-5270,PAYLOAD,2023-12-17 21:32:59,14.98330893,0.0002095,69.9997,273.6775,252.2776,107.8154,0.00012137,1.356e-05,0.0,0 STARLINK-5270,1 55299U 23010AG  23351.89791652  .00001356  00000-0  12137-3 0  9999,2 55299  69.9997 273.6775 0002095 252.2776 107.8154 14.98330893 52400,6950.19,96.107,573.511,570.599,0.0
